{"fetched_at":"2026-07-12T07:15:18.323Z","source":"https://celestrak.org/NORAD/elements/gp.php?GROUP=kuiper&FORMAT=JSON","constellation":"kuiper","records":[{"OBJECT_NAME":"KUIPER-00114","OBJECT_ID":"2025-171V","EPOCH":"2026-07-11T10:34:40.495008","CLASSIFICATION_TYPE":"U","MEAN_MOTION":14.79935227,"ECCENTRICITY":0.00005188,"INCLINATION":51.8997,"RA_OF_ASC_NODE":348.3683,"ARG_OF_PERICENTER":104.4799,"MEAN_ANOMALY":255.6221,"EPHEMERIS_TYPE":0,"NORAD_CAT_ID":65151,"ELEMENT_SET_NO":999,"REV_AT_EPOCH":5096,"BSTAR":0.00016947766,"MEAN_MOTION_DOT":0.00001071,"MEAN_MOTION_DDOT":0},{"OBJECT_NAME":"KUIPER-00115","OBJECT_ID":"2025-171W","EPOCH":"2026-07-11T17:15:17.917632","CLASSIFICATION_TYPE":"U","MEAN_MOTION":14.79931197,"ECCENTRICITY":0.00005305,"INCLINATION":51.9012,"RA_OF_ASC_NODE":339.6379,"ARG_OF_PERICENTER":113.7985,"MEAN_ANOMALY":246.3033,"EPHEMERIS_TYPE":0,"NORAD_CAT_ID":65152,"ELEMENT_SET_NO":999,"REV_AT_EPOCH":5111,"BSTAR":-0.00001382242,"MEAN_MOTION_DOT":-0.00000326,"MEAN_MOTION_DDOT":0},{"OBJECT_NAME":"KUIPER-00116","OBJECT_ID":"2025-171X","EPOCH":"2026-07-11T14:41:40.543584","CLASSIFICATION_TYPE":"U","MEAN_MOTION":14.79938308,"ECCENTRICITY":0.0000532,"INCLINATION":51.904,"RA_OF_ASC_NODE":345.1479,"ARG_OF_PERICENTER":109.1715,"MEAN_ANOMALY":250.9305,"EPHEMERIS_TYPE":0,"NORAD_CAT_ID":65153,"ELEMENT_SET_NO":999,"REV_AT_EPOCH":5102,"BSTAR":0.00030382076,"MEAN_MOTION_DOT":0.00002096,"MEAN_MOTION_DDOT":0},{"OBJECT_NAME":"KUIPER-00118","OBJECT_ID":"2025-171Y","EPOCH":"2026-07-11T16:14:58.066080","CLASSIFICATION_TYPE":"U","MEAN_MOTION":14.79924704,"ECCENTRICITY":0.00004475,"INCLINATION":51.9018,"RA_OF_ASC_NODE":347.3108,"ARG_OF_PERICENTER":97.0788,"MEAN_ANOMALY":263.0225,"EPHEMERIS_TYPE":0,"NORAD_CAT_ID":65154,"ELEMENT_SET_NO":999,"REV_AT_EPOCH":5100,"BSTAR":0.00029767098,"MEAN_MOTION_DOT":0.00002048,"MEAN_MOTION_DDOT":0},{"OBJECT_NAME":"KUIPER-00119","OBJECT_ID":"2025-171Z","EPOCH":"2026-07-11T16:34:27.853824","CLASSIFICATION_TYPE":"U","MEAN_MOTION":14.79937077,"ECCENTRICITY":0.00002428,"INCLINATION":51.9029,"RA_OF_ASC_NODE":334.8462,"ARG_OF_PERICENTER":306.8963,"MEAN_ANOMALY":53.1977,"EPHEMERIS_TYPE":0,"NORAD_CAT_ID":65155,"ELEMENT_SET_NO":999,"REV_AT_EPOCH":5117,"BSTAR":0.00032960439,"MEAN_MOTION_DOT":0.00002293,"MEAN_MOTION_DDOT":0},{"OBJECT_NAME":"KUIPER-00120","OBJECT_ID":"2025-217A","EPOCH":"2026-07-11T10:54:47.094336","CLASSIFICATION_TYPE":"U","MEAN_MOTION":14.79926766,"ECCENTRICITY":0.00004888,"INCLINATION":51.8979,"RA_OF_ASC_NODE":225.7683,"ARG_OF_PERICENTER":85.8495,"MEAN_ANOMALY":274.2523,"EPHEMERIS_TYPE":0,"NORAD_CAT_ID":65762,"ELEMENT_SET_NO":999,"REV_AT_EPOCH":4306,"BSTAR":0.00016458248,"MEAN_MOTION_DOT":0.00001034,"MEAN_MOTION_DDOT":0},{"OBJECT_NAME":"KUIPER-00132","OBJECT_ID":"2025-217B","EPOCH":"2026-07-10T23:32:45.847680","CLASSIFICATION_TYPE":"U","MEAN_MOTION":15.43263261,"ECCENTRICITY":0.00067664,"INCLINATION":51.858,"RA_OF_ASC_NODE":123.26,"ARG_OF_PERICENTER":54.7671,"MEAN_ANOMALY":305.3951,"EPHEMERIS_TYPE":0,"NORAD_CAT_ID":65763,"ELEMENT_SET_NO":999,"REV_AT_EPOCH":4444,"BSTAR":0.0004455666,"MEAN_MOTION_DOT":0.00019787,"MEAN_MOTION_DDOT":0},{"OBJECT_NAME":"KUIPER-00133","OBJECT_ID":"2025-217C","EPOCH":"2026-07-11T14:57:54.739008","CLASSIFICATION_TYPE":"U","MEAN_MOTION":14.79927765,"ECCENTRICITY":0.00004224,"INCLINATION":51.9027,"RA_OF_ASC_NODE":225.1288,"ARG_OF_PERICENTER":87.0974,"MEAN_ANOMALY":273.0037,"EPHEMERIS_TYPE":0,"NORAD_CAT_ID":65764,"ELEMENT_SET_NO":999,"REV_AT_EPOCH":4309,"BSTAR":0.00019227764,"MEAN_MOTION_DOT":0.00001245,"MEAN_MOTION_DDOT":0},{"OBJECT_NAME":"KUIPER-00139","OBJECT_ID":"2025-217D","EPOCH":"2026-07-11T12:33:52.522848","CLASSIFICATION_TYPE":"U","MEAN_MOTION":14.79931169,"ECCENTRICITY":0.00005848,"INCLINATION":51.8975,"RA_OF_ASC_NODE":193.0305,"ARG_OF_PERICENTER":76.8305,"MEAN_ANOMALY":283.2723,"EPHEMERIS_TYPE":0,"NORAD_CAT_ID":65765,"ELEMENT_SET_NO":999,"REV_AT_EPOCH":4353,"BSTAR":0.00015042962,"MEAN_MOTION_DOT":0.00000926,"MEAN_MOTION_DDOT":0},{"OBJECT_NAME":"KUIPER-00142","OBJECT_ID":"2025-217E","EPOCH":"2026-07-11T01:38:28.562496","CLASSIFICATION_TYPE":"U","MEAN_MOTION":14.79932949,"ECCENTRICITY":0.00004754,"INCLINATION":51.8984,"RA_OF_ASC_NODE":210.0035,"ARG_OF_PERICENTER":75.877,"MEAN_ANOMALY":284.2245,"EPHEMERIS_TYPE":0,"NORAD_CAT_ID":65766,"ELEMENT_SET_NO":999,"REV_AT_EPOCH":4325,"BSTAR":0.00019381007,"MEAN_MOTION_DOT":0.00001257,"MEAN_MOTION_DDOT":0},{"OBJECT_NAME":"KUIPER-00145","OBJECT_ID":"2025-217F","EPOCH":"2026-07-11T11:18:05.760864","CLASSIFICATION_TYPE":"U","MEAN_MOTION":14.79914829,"ECCENTRICITY":0.0000364,"INCLINATION":51.8988,"RA_OF_ASC_NODE":210.7452,"ARG_OF_PERICENTER":57.707,"MEAN_ANOMALY":302.3927,"EPHEMERIS_TYPE":0,"NORAD_CAT_ID":65767,"ELEMENT_SET_NO":999,"REV_AT_EPOCH":4327,"BSTAR":0.0002087786,"MEAN_MOTION_DOT":0.0000137,"MEAN_MOTION_DDOT":0},{"OBJECT_NAME":"KUIPER-00147","OBJECT_ID":"2025-217G","EPOCH":"2026-07-11T00:42:06.637536","CLASSIFICATION_TYPE":"U","MEAN_MOTION":14.79931531,"ECCENTRICITY":0.00005665,"INCLINATION":51.8966,"RA_OF_ASC_NODE":215.1779,"ARG_OF_PERICENTER":83.1838,"MEAN_ANOMALY":276.9189,"EPHEMERIS_TYPE":0,"NORAD_CAT_ID":65768,"ELEMENT_SET_NO":999,"REV_AT_EPOCH":4317,"BSTAR":0.00014913599,"MEAN_MOTION_DOT":0.00000916,"MEAN_MOTION_DDOT":0},{"OBJECT_NAME":"KUIPER-00148","OBJECT_ID":"2025-217H","EPOCH":"2026-07-09T00:18:09.637056","CLASSIFICATION_TYPE":"U","MEAN_MOTION":14.7612588,"ECCENTRICITY":0.00009123,"INCLINATION":51.9032,"RA_OF_ASC_NODE":206.5074,"ARG_OF_PERICENTER":308.5502,"MEAN_ANOMALY":51.5377,"EPHEMERIS_TYPE":0,"NORAD_CAT_ID":65769,"ELEMENT_SET_NO":999,"REV_AT_EPOCH":4312,"BSTAR":0.00023173901,"MEAN_MOTION_DOT":0.00001401,"MEAN_MOTION_DDOT":0},{"OBJECT_NAME":"KUIPER-00150","OBJECT_ID":"2025-217J","EPOCH":"2026-07-11T11:47:17.818944","CLASSIFICATION_TYPE":"U","MEAN_MOTION":14.79929267,"ECCENTRICITY":0.00004274,"INCLINATION":51.9004,"RA_OF_ASC_NODE":223.1697,"ARG_OF_PERICENTER":85.5962,"MEAN_ANOMALY":274.5049,"EPHEMERIS_TYPE":0,"NORAD_CAT_ID":65770,"ELEMENT_SET_NO":999,"REV_AT_EPOCH":4310,"BSTAR":0.00018046806,"MEAN_MOTION_DOT":0.00001155,"MEAN_MOTION_DDOT":0},{"OBJECT_NAME":"KUIPER-00151","OBJECT_ID":"2025-217K","EPOCH":"2026-07-11T11:58:54.840576","CLASSIFICATION_TYPE":"U","MEAN_MOTION":14.79934967,"ECCENTRICITY":0.00004158,"INCLINATION":51.9004,"RA_OF_ASC_NODE":215.6319,"ARG_OF_PERICENTER":79.7754,"MEAN_ANOMALY":280.3256,"EPHEMERIS_TYPE":0,"NORAD_CAT_ID":65771,"ELEMENT_SET_NO":999,"REV_AT_EPOCH":4321,"BSTAR":0.00017983016,"MEAN_MOTION_DOT":0.0000115,"MEAN_MOTION_DDOT":0},{"OBJECT_NAME":"KUIPER-00152","OBJECT_ID":"2025-217L","EPOCH":"2026-07-11T11:29:44.823264","CLASSIFICATION_TYPE":"U","MEAN_MOTION":14.79924522,"ECCENTRICITY":0.0000428,"INCLINATION":51.8999,"RA_OF_ASC_NODE":203.2057,"ARG_OF_PERICENTER":71.337,"MEAN_ANOMALY":288.7639,"EPHEMERIS_TYPE":0,"NORAD_CAT_ID":65772,"ELEMENT_SET_NO":999,"REV_AT_EPOCH":4338,"BSTAR":0.00018643539,"MEAN_MOTION_DOT":0.000012,"MEAN_MOTION_DDOT":0}]}
